LEMUR-2-FURIAUS         
1 42840U 17042R   26068.96143223  .00025928  00000+0  99966-3 0  9991
2 42840  97.3753 248.4990 0007537  55.8686 304.3266 15.26272951473053
STARLINK-33553          
1 62108U 24220W   26068.44302378  .00035699  00000+0  13005-2 0  9992
2 62108  43.0012 206.9212 0001412 248.9109 111.1592 15.27581447 73152
